STARLINK-1185
1 15087C 20006AV  21326.15815425  .00004115  00000-0  27578-3 0  3264
2 15087  53.0542  88.0239 0001221  86.5079 208.9048 15.06386367    13
